[{"OBJECT_NAME":"STARLINK-3770","OBJECT_ID":"2022-051X","EPOCH":"2026-03-09T10:37:40.550016","MEAN_MOTION":15.08836721,"ECCENTRICITY":0.00014649,"INCLINATION":53.2176,"RA_OF_ASC_NODE":135.2298,"ARG_OF_PERICENTER":91.0756,"MEAN_ANOMALY":269.0404,"EPHEMERIS_TYPE":0,"CLASSIFICATION_TYPE":"U","NORAD_CAT_ID":52554,"ELEMENT_SET_NO":999,"REV_AT_EPOCH":21133,"BSTAR":1.6421357e-5,"MEAN_MOTION_DOT":-2.7e-7,"MEAN_MOTION_DDOT":0},{"OBJECT_NAME":"FENGYUN 1C DEB","OBJECT_ID":"1999-025CFL","EPOCH":"2026-03-09T13:21:18.531072","MEAN_MOTION":14.04672964,"ECCENTRICITY":0.04686899,"INCLINATION":98.6297,"RA_OF_ASC_NODE":293.4954,"ARG_OF_PERICENTER":18.1684,"MEAN_ANOMALY":343.5617,"EPHEMERIS_TYPE":0,"CLASSIFICATION_TYPE":"U","NORAD_CAT_ID":31761,"ELEMENT_SET_NO":999,"REV_AT_EPOCH":59329,"BSTAR":0.0014536026,"MEAN_MOTION_DOT":6.265e-5,"MEAN_MOTION_DDOT":0}]
